ONEWEB-0687             
1 61595U 24188B   25220.60156632  .00000061  00000+0  12462-3 0  9993
2 61595  87.9024  68.1221 0001477 105.8137 254.3157 13.17648279 44735
ONEWEB-0688             
1 61596U 24188C   25220.55431408  .00000037  00000+0  61614-4 0  9992
2 61596  87.9023  68.1318 0002469 116.0113 244.1273 13.17647588 44729
ONEWEB-0689             
1 61597U 24188D   25220.60290178  .00000486  00000+0  13342-2 0  9997
2 61597  87.8763  83.3668 0001403  86.2480 273.8809 13.11418865 43483
ONEWEB-0690             
1 61598U 24188E   25220.61306578  .00000246  00000+0  65896-3 0  9997
2 61598  87.8807  83.3304 0002393  72.7684 287.3705 13.11415563 43662
ONEWEB-0691             
1 61599U 24188F   25220.60799996  .00000371  00000+0  10107-2 0  9990
2 61599  87.8718  83.3159 0001939  93.7506 266.3844 13.11414306 43512
ONEWEB-0692             
1 61600U 24188G   25220.62833138  .00000051  00000+0  10879-3 0  9994
2 61600  87.8790  83.3983 0001219  50.3079 309.8156 13.11416584 43503
ONEWEB-0693             
1 61601U 24188H   25220.56613955  .00000064  00000+0  13167-3 0  9998
2 61601  87.9029  68.1467 0002593  81.1212 279.0213 13.17649197 44715
ONEWEB-0695             
1 61602U 24188J   25220.60457516  .00000532  00000+0  14650-2 0  9990
2 61602  87.8793  83.3891 0001142  76.4217 283.7038 13.11420122 43494
